     2.100          NAVIGATION                              RINEX VERSION / TYPE
fic2rin                                 08/10/2010 01:23:54 PGM / RUN BY / DATE
                                                            END OF HEADER
29 10  8  9  6  0  0.0  .140599440783D-03  .295585778076D-11  .000000000000D+00
     .490000000000D+02 -.278437500000D+02  .416588781166D-08 -.248481689268D+01
    -.145100057125D-05  .282401789445D-02  .127367675304D-04  .515370063400D+04
     .108000000000D+06  .279396772385D-07 -.302360213552D+01  .186264514923D-07
     .961233047489D+00  .129593750000D+03 -.125407797123D+01 -.773853662683D-08
     .557166065346D-09  .100000000000D+01  .159600000000D+04  .000000000000D+00
     .240000000000D+01  .000000000000D+00 -.884756445885D-08  .490000000000D+02
     .100806000000D+06  .400000000000D+01
30 10  8  9  6  0  0.0  .267802271992D-03  .329691829393D-11  .000000000000D+00
     .330000000000D+02 -.134875000000D+03  .438839708007D-08  .216122103885D+01
    -.712648034096D-05  .125499919523D-01  .420957803726D-05  .515371271896D+04
     .108000000000D+06  .182539224625D-06  .213632468789D+01 -.100582838058D-06
     .956956184541D+00  .294281250000D+03  .149970021976D+01 -.813712465819D-08
    -.317870383435D-09  .100000000000D+01  .159600000000D+04  .000000000000D+00
     .340000000000D+01  .000000000000D+00 -.791624188423D-08  .330000000000D+02
     .100806000000D+06  .400000000000D+01
31 10  8  9  6  0  0.0 -.185808166862D-04  .284217094304D-11  .000000000000D+00
     .810000000000D+02  .690937500000D+02  .447518640948D-08 -.174261068191D+01
     .367872416973D-05  .734756700695D-02  .974163413048D-06  .515373595428D+04
     .108000000000D+06 -.540167093277D-07  .113641669897D+01  .800937414169D-07
     .977316834060D+00  .372468750000D+03 -.105079078570D+01 -.845249493748D-08
     .166435504135D-09  .100000000000D+01  .159600000000D+04  .000000000000D+00
     .240000000000D+01  .000000000000D+00 -.130385160446D-07  .810000000000D+02
     .100806000000D+06  .400000000000D+01
32 10  8  9  6  0  0.0 -.571324490011D-04 -.886757334229D-11  .000000000000D+00
     .410000000000D+02 -.233750000000D+02  .486555981295D-08 -.955835369854D+00
    -.124983489513D-05  .126277123345D-01  .986270606518D-05  .515366280174D+04
     .108000000000D+06 -.745058059692D-07 -.875487605036D+00 -.191852450371D-06
     .958094230939D+00  .188687500000D+03 -.954131639367D+00 -.829534553444D-08
    -.644312552490D-09  .100000000000D+01  .159600000000D+04  .000000000000D+00
     .240000000000D+01  .000000000000D+00 -.325962901115D-08  .410000000000D+02
     .100806000000D+06  .400000000000D+01
13 10  8  9  7  0  0.0  .300124753267D-03 -.795807864051D-12  .000000000000D+00
     .109000000000D+03  .131281250000D+03  .350514600340D-08  .122699869196D+01
     .640377402306D-05  .443233933765D-02  .121947377920D-04  .515372943497D+04
     .111600000000D+06 -.298023223877D-07  .156715176776D+00 -.145286321640D-06
     .992697220361D+00  .159687500000D+03  .179034788882D+01 -.753317092966D-08
    -.364300888880D-10  .100000000000D+01  .159600000000D+04  .000000000000D+00
     .485000000000D+01  .000000000000D+00 -.107102096081D-07  .109000000000D+03
     .100806000000D+06  .600000000000D+01
25 10  8  9  7  0  0.0 -.279000960290D-04 -.761701812735D-11  .000000000000D+00
     .135000000000D+03 -.138656250000D+03  .437518224390D-08  .229105518808D+01
    -.711157917976D-05  .697950832546D-03  .492855906487D-05  .515380102158D+04
     .111600000000D+06 -.670552253723D-07  .216461582071D+01  .135973095894D-06
     .960341946051D+00  .284062500000D+03  .195695141312D+01 -.821355641331D-08
    -.315013121561D-09  .100000000000D+01  .159600000000D+04  .100000000000D+01
     .685000000000D+01  .630000000000D+02  .465661287308D-08  .135000000000D+03
     .100806000000D+06  .600000000000D+01
 6 10  8  9  5 59 44.0  .541057437658D-03 -.147792889038D-10  .000000000000D+00
     .500000000000D+01 -.423125000000D+02  .468948104999D-08  .201025714163D+01
    -.224635004997D-05  .624760123901D-02  .131763517857D-04  .515366571999D+04
     .107984000000D+06  .391155481339D-07 -.310727459965D+01  .745058059692D-07
     .935289959632D+00  .111093750000D+03 -.988457231726D+00 -.792925885689D-08
     .464305054455D-09  .100000000000D+01  .159600000000D+04  .000000000000D+00
     .240000000000D+01  .000000000000D+00 -.512227416039D-08  .500000000000D+01
     .103626000000D+06  .400000000000D+01
13 10  8  9  5 59 44.0  .300128012896D-03 -.795807864051D-12  .000000000000D+00
     .130000000000D+02  .132656250000D+03  .349050253630D-08  .699639503479D+00
     .672414898872D-05  .443224993069D-02  .124219805002D-04  .515372909737D+04
     .107984000000D+06 -.465661287308D-07  .156742603564D+00 -.502914190292D-07
     .992697221824D+00  .157468750000D+03  .179030347170D+01 -.757460122683D-08
    -.542879755978D-10  .100000000000D+01  .159600000000D+04  .000000000000D+00
     .240000000000D+01  .000000000000D+00 -.107102096081D-07  .130000000000D+02
     .104076000000D+06  .400000000000D+01
18 10  8  9  5 59 44.0  .859010033309D-04  .227373675443D-11  .000000000000D+00
     .240000000000D+02 -.414687500000D+02  .521593155020D-08  .253161986987D+01
    -.230595469475D-05  .117809426738D-01  .865012407303D-05  .515371518517D+04
     .107984000000D+06 -.968575477600D-07 -.940313907049D+00 -.150874257088D-06
     .936195675622D+00  .199625000000D+03 -.231204911143D+01 -.815641117584D-08
    -.720744307608D-09  .100000000000D+01  .159600000000D+04  .000000000000D+00
     .240000000000D+01  .000000000000D+00 -.107102096081D-07  .240000000000D+02
     .106956000000D+06  .400000000000D+01
 6 10  8  9  7 59 44.0  .540951266885D-03 -.147792889038D-10  .000000000000D+00
     .140000000000D+02 -.375312500000D+02  .465483674978D-08  .306043382943D+01
    -.202842056751D-05  .624808564316D-02  .128578394651D-04  .515366505241D+04
     .115184000000D+06  .279396772385D-07 -.310733144279D+01  .204890966415D-07
     .935293141479D+00  .114031250000D+03 -.988447405305D+00 -.792604443728D-08
     .421088968617D-09  .100000000000D+01  .159600000000D+04  .000000000000D+00
     .240000000000D+01  .000000000000D+00 -.512227416039D-08  .140000000000D+02
     .108006000000D+06  .400000000000D+01
13 10  8  9  7 59 44.0  .300122424960D-03 -.795807864051D-12  .000000000000D+00
     .140000000000D+02  .136468750000D+03  .349014537856D-08  .174953639796D+01
     .682659447193D-05  .443222618196D-02  .116862356663D-04  .515373098755D+04
     .115184000000D+06  .447034835815D-07  .156688324915D+00 -.689178705215D-07
     .992697283266D+00  .165875000000D+03  .179054618152D+01 -.748245453141D-08
    -.485734518507D-10  .100000000000D+01  .159600000000D+04  .000000000000D+00
     .240000000000D+01  .000000000000D+00 -.107102096081D-07  .140000000000D+02
     .108006000000D+06  .400000000000D+01
18 10  8  9  7 59 44.0  .859173014760D-04  .227373675443D-11  .000000000000D+00
     .250000000000D+02 -.541875000000D+02  .536593779856D-08 -.270140106436D+01
    -.288151204586D-05  .117826821515D-01  .853091478348D-05  .515371197319D+04
     .115184000000D+06  .124797224998D-06 -.940373838414D+00 -.245869159698D-06
     .936190407654D+00  .200406250000D+03 -.231205105418D+01 -.828748806429D-08
    -.587524472753D-09  .100000000000D+01  .159600000000D+04  .000000000000D+00
     .240000000000D+01  .000000000000D+00 -.107102096081D-07  .250000000000D+02
     .108006000000D+06  .400000000000D+01
 1 10  8  9  8  0  0.0 -.150020699948D-03 -.397903932026D-11  .000000000000D+00
     .108000000000D+03 -.137250000000D+03  .433160900033D-08  .241813967599D+01
    -.719912350178D-05  .449173781089D-02  .514090061188D-05  .515361665916D+04
     .115200000000D+06  .931322574615D-08  .217619006136D+01 -.558793544769D-07
     .965553841867D+00  .283718750000D+03  .938539440083D+00 -.818926968738D-08
    -.381087302387D-09  .100000000000D+01  .159600000000D+04  .000000000000D+00
     .340000000000D+01  .630000000000D+02 -.190921127796D-07  .108000000000D+03
     .108006000000D+06  .400000000000D+01
 2 10  8  9  8  0  0.0  .279441010207D-03  .295585778076D-11  .000000000000D+00
     .430000000000D+02  .330937500000D+02  .558344685869D-08  .972685671371D+00
     .168196856976D-05  .963377719745D-02  .554881989956D-05  .515360828209D+04
     .115200000000D+06  .819563865662D-07 -.202527906912D+01  .139698386192D-06
     .939366971879D+00  .262218750000D+03  .311803197025D+01 -.854428447517D-08
     .460733477113D-09  .100000000000D+01  .159600000000D+04  .000000000000D+00
     .240000000000D+01  .000000000000D+00 -.172294676304D-07  .430000000000D+02
     .108006000000D+06  .400000000000D+01
 3 10  8  9  8  0  0.0  .592637807131D-03  .488853402203D-11  .000000000000D+00
     .890000000000D+02 -.500937500000D+02  .490877589879D-08  .860128786536D+00
    -.261329114437D-05  .134809985757D-01  .130161643028D-04  .515373266602D+04
     .115200000000D+06 -.227242708206D-06  .310467750751D+01 -.167638063431D-07
     .928006293861D+00  .114625000000D+03  .101923895478D+01 -.831320342115D-08
     .227152318949D-09  .100000000000D+01  .159600000000D+04  .000000000000D+00
     .240000000000D+01  .000000000000D+00 -.465661287308D-08  .890000000000D+02
     .108006000000D+06  .400000000000D+01
 4 10  8  9  8  0  0.0  .142714940012D-03  .818545231596D-11  .000000000000D+00
     .900000000000D+02  .285625000000D+02  .557487507307D-08 -.224640266536D+01
     .110454857349D-05  .915868987795D-02  .529736280441D-05  .515371869659D+04
     .115200000000D+06  .968575477600D-07 -.200750413608D+01 -.141561031342D-06
     .938484551397D+00  .264156250000D+03  .623442168914D+00 -.845249493748D-08
     .616454249222D-09  .100000000000D+01  .159600000000D+04  .000000000000D+00
     .240000000000D+01  .000000000000D+00 -.605359673500D-08  .900000000000D+02
     .108006000000D+06  .400000000000D+01
